[Satellite]
VERSION=1.1
NAME=DOVE (DO-17)
NICKNAME=DO-17
TLE1=1 20440U 90005E   11059.79098027  .00000053  00000-0  35122-4 0  8480
TLE2=2 20440  98.3457  16.2890 0011737 115.1819 245.0592 14.32206248102269
